[{"OBJECT_NAME":"IRIDIUM 33 DEB","OBJECT_ID":"1997-051ABX","EPOCH":"2023-09-14T05:04:45.728832","MEAN_MOTION":14.50685944,"ECCENTRICITY":0.0022469,"INCLINATION":86.3446,"RA_OF_ASC_NODE":341.4491,"ARG_OF_PERICENTER":206.0764,"MEAN_ANOMALY":184.6172,"EPHEMERIS_TYPE":0,"CLASSIFICATION_TYPE":"U","NORAD_CAT_ID":46965,"ELEMENT_SET_NO":999,"REV_AT_EPOCH":50333,"BSTAR":0.0010818,"MEAN_MOTION_DOT":4.282e-5,"MEAN_MOTION_DDOT":0},{"OBJECT_NAME":"IRIDIUM 33 DEB","OBJECT_ID":"1997-051ACD","EPOCH":"2023-09-15T12:46:22.155168","MEAN_MOTION":14.58938781,"ECCENTRICITY":0.0012161,"INCLINATION":86.3573,"RA_OF_ASC_NODE":343.8756,"ARG_OF_PERICENTER":236.6188,"MEAN_ANOMALY":180.6146,"EPHEMERIS_TYPE":0,"CLASSIFICATION_TYPE":"U","NORAD_CAT_ID":46971,"ELEMENT_SET_NO":999,"REV_AT_EPOCH":52155,"BSTAR":0.0018044,"MEAN_MOTION_DOT":8.49e-5,"MEAN_MOTION_DDOT":0},{"OBJECT_NAME":"IRIDIUM 33 DEB","OBJECT_ID":"1997-051ACE","EPOCH":"2023-09-13T03:20:28.154400","MEAN_MOTION":14.44270817,"ECCENTRICITY":0.000841,"INCLINATION":86.3908,"RA_OF_ASC_NODE":31.043,"ARG_OF_PERICENTER":333.335,"MEAN_ANOMALY":150.5072,"EPHEMERIS_TYPE":0,"CLASSIFICATION_TYPE":"U","NORAD_CAT_ID":46972,"ELEMENT_SET_NO":999,"REV_AT_EPOCH":49687,"BSTAR":0.00105,"MEAN_MOTION_DOT":3.628e-5,"MEAN_MOTION_DDOT":0},{"OBJECT_NAME":"IRIDIUM 33 DEB","OBJECT_ID":"1997-051ACF","EPOCH":"2023-09-12T00:22:15.057984","MEAN_MOTION":14.37998985,"ECCENTRICITY":0.0147162,"INCLINATION":86.3726,"RA_OF_ASC_NODE":161.5466,"ARG_OF_PERICENTER":97.113,"MEAN_ANOMALY":264.6827,"EPHEMERIS_TYPE":0,"CLASSIFICATION_TYPE":"U","NORAD_CAT_ID":46973,"ELEMENT_SET_NO":999,"REV_AT_EPOCH":57986,"BSTAR":0.010043,"MEAN_MOTION_DOT":0.00034585,"MEAN_MOTION_DDOT":0},{"OBJECT_NAME":"IRIDIUM 33 DEB","OBJECT_ID":"1997-051ACG","EPOCH":"2023-09-14T19:38:10.279392","MEAN_MOTION":14.21251205,"ECCENTRICITY":0.0129486,"INCLINATION":86.3059,"RA_OF_ASC_NODE":95.6269,"ARG_OF_PERICENTER":329.8056,"MEAN_ANOMALY":29.5712,"EPHEMERIS_TYPE":0,"CLASSIFICATION_TYPE":"U","NORAD_CAT_ID":46974,"ELEMENT_SET_NO":999,"REV_AT_EPOCH":45771,"BSTAR":0.0022269,"MEAN_MOTION_DOT":5.296e-5,"MEAN_MOTION_DDOT":0},{"OBJECT_NAME":"IRIDIUM 33 DEB","OBJECT_ID":"1997-051ACM","EPOCH":"2023-09-13T16:50:58.024608","MEAN_MOTION":14.42896633,"ECCENTRICITY":0.0064235,"INCLINATION":86.3531,"RA_OF_ASC_NODE":52.328,"ARG_OF_PERICENTER":153.0404,"MEAN_ANOMALY":207.4159,"EPHEMERIS_TYPE":0,"CLASSIFICATION_TYPE":"U","NORAD_CAT_ID":46979,"ELEMENT_SET_NO":999,"REV_AT_EPOCH":23435,"BSTAR":0.0050386,"MEAN_MOTION_DOT":0.00017303,"MEAN_MOTION_DDOT":0}]
