IRIDIUM 33 DEB          
1 46965U 97051ABX 23257.21164038  .00004282  00000+0  10818-2 0  9991
2 46965  86.3446 341.4491 0022469 206.0764 184.6172 14.50685944503336
IRIDIUM 33 DEB          
1 46971U 97051ACD 23258.53220087  .00008490  00000+0  18044-2 0  9995
2 46971  86.3573 343.8756 0012161 236.6188 180.6146 14.58938781521550
IRIDIUM 33 DEB          
1 46972U 97051ACE 23256.13921475  .00003628  00000+0  10500-2 0  9996
2 46972  86.3908  31.0430 0008410 333.3350 150.5072 14.44270817496870
IRIDIUM 33 DEB          
1 46973U 97051ACF 23255.01545206  .00034585  00000+0  10043-1 0  9994
2 46973  86.3726 161.5466 0147162  97.1130 264.6827 14.37998985579867
IRIDIUM 33 DEB          
1 46974U 97051ACG 23257.81817453  .00005296  00000+0  22269-2 0  9992
2 46974  86.3059  95.6269 0129486 329.8056  29.5712 14.21251205457716
IRIDIUM 33 DEB          
1 46979U 97051ACM 23256.70206047  .00017303  00000+0  50386-2 0  9998
2 46979  86.3531  52.3280 0064235 153.0404 207.4159 14.42896633234351
